[{"OBJECT_NAME":"ION SCV-004","OBJECT_ID":"2022-002K","EPOCH":"2026-03-09T16:32:03.244416","MEAN_MOTION":15.29369331,"ECCENTRICITY":0.00072157,"INCLINATION":97.2961,"RA_OF_ASC_NODE":128.2294,"ARG_OF_PERICENTER":1.6783,"MEAN_ANOMALY":358.448,"EPHEMERIS_TYPE":0,"CLASSIFICATION_TYPE":"U","NORAD_CAT_ID":50993,"ELEMENT_SET_NO":999,"REV_AT_EPOCH":23008,"BSTAR":0.00023198467,"MEAN_MOTION_DOT":6.538e-5,"MEAN_MOTION_DDOT":0},{"OBJECT_NAME":"STARLINK-30279","OBJECT_ID":"2023-144X","EPOCH":"2026-03-09T00:00:04.000320","MEAN_MOTION":15.26701549,"ECCENTRICITY":0.00014879,"INCLINATION":43,"RA_OF_ASC_NODE":288.715,"ARG_OF_PERICENTER":259.326,"MEAN_ANOMALY":199.1729,"EPHEMERIS_TYPE":0,"CLASSIFICATION_TYPE":"U","NORAD_CAT_ID":57885,"ELEMENT_SET_NO":999,"REV_AT_EPOCH":578,"BSTAR":0.0021326377,"MEAN_MOTION_DOT":0.00057324,"MEAN_MOTION_DDOT":0}]
